TIANMU-1 10             
1 57402U 23101D   26066.14928118  .00008839  00000+0  31465-3 0  9998
2 57402  97.2751 119.3502 0006735 141.7098 218.4622 15.29160986146040
FENGYUN 3F              
1 57490U 23111A   26066.22166493  .00000082  00000+0  59271-4 0  9993
2 57490  98.6932 138.0951 0001287  80.8701 279.2621 14.19918695134395
ARKTIKA-M 2             
1 58584U 23198A   26064.07652728  .00000150  00000+0  00000+0 0  9992
2 58584  63.2186 165.9003 6877723 267.7621  18.8474  2.00612038 16239
TIANMU-1 11             
1 58645U 23205A   26066.18294694  .00008205  00000+0  32301-3 0  9999
2 58645  97.3546  89.3741 0009294  16.9214 343.2332 15.25838606121966
TIANMU-1 12             
1 58646U 23205B   26066.14966539  .00008876  00000+0  35016-3 0  9990
2 58646  97.3535  89.1209 0007083   3.4573 356.6713 15.25762625121941
TIANMU-1 13             
1 58647U 23205C   26066.18064506  .00007378  00000+0  29118-3 0  9990
2 58647  97.3563  89.3892 0006735 343.2785  16.8230 15.25810899121942
TIANMU-1 14             
1 58648U 23205D   26066.16517613  .00007242  00000+0  28602-3 0  9998
2 58648  97.3497  88.6450 0007632 346.7956  13.3081 15.25787678121940
TIANMU-1 19             
1 58660U 23208A   26066.17890738  .00012471  00000+0  43482-3 0  9991
2 58660  97.4388 182.1633 0004076 328.3734  31.7261 15.29767193121720
TIANMU-1 20             
1 58661U 23208B   26066.23053166  .00013747  00000+0  46156-3 0  9993
2 58661  97.4327 182.7463 0006391 335.1790  24.9143 15.30959225121815
TIANMU-1 21             
1 58662U 23208C   26066.23226825  .00014323  00000+0  45182-3 0  9997
2 58662  97.4382 185.0132 0006169 328.2239  31.8630 15.32957983121932
TIANMU-1 22             
1 58663U 23208D   26066.19592060  .00011776  00000+0  41559-3 0  9993
2 58663  97.4382 182.1930 0003333   2.8449 357.2809 15.29388632121731
TIANMU-1 15             
1 58700U 24004A   26066.16293207  .00008426  00000+0  33238-3 0  9991
2 58700  97.4668 252.4043 0006892 359.2263   0.8963 15.25788399120216
TIANMU-1 16             
1 58701U 24004B   26066.21205514  .00008258  00000+0  32558-3 0  9999
2 58701  97.4609 251.7783 0005417   5.0891 355.0402 15.25821963120229
TIANMU-1 17             
1 58702U 24004C   26066.19444562  .00008569  00000+0  33739-3 0  9992
2 58702  97.4641 252.2132 0004659   8.7349 351.3970 15.25858095120219
TIANMU-1 18             
1 58703U 24004D   26066.17952766  .00008242  00000+0  32516-3 0  9991
2 58703  97.4659 252.4095 0004062  10.2335 349.8985 15.25807180120217
INSAT-3DS               
1 58990U 24033A   26066.09701542 -.00000158  00000+0  00000+0 0  9994
2 58990   0.0486 260.2461 0002168 101.4050 280.1326  1.00273118 46049
METEOR-M2 4             
1 59051U 24039A   26066.18714271  .00000070  00000+0  50817-4 0  9990
2 59051  98.6904  26.8302 0008135 102.5879 257.6209 14.22416650104768
