[{"OBJECT_NAME":"TIANMU-1 10","OBJECT_ID":"2023-101D","EPOCH":"2026-03-07T03:34:57.893952","MEAN_MOTION":15.29160986,"ECCENTRICITY":0.0006735,"INCLINATION":97.2751,"RA_OF_ASC_NODE":119.3502,"ARG_OF_PERICENTER":141.7098,"MEAN_ANOMALY":218.4622,"EPHEMERIS_TYPE":0,"CLASSIFICATION_TYPE":"U","NORAD_CAT_ID":57402,"ELEMENT_SET_NO":999,"REV_AT_EPOCH":14604,"BSTAR":0.00031465,"MEAN_MOTION_DOT":8.839e-5,"MEAN_MOTION_DDOT":0},{"OBJECT_NAME":"FENGYUN 3F","OBJECT_ID":"2023-111A","EPOCH":"2026-03-07T05:19:11.849952","MEAN_MOTION":14.19918695,"ECCENTRICITY":0.0001287,"INCLINATION":98.6932,"RA_OF_ASC_NODE":138.0951,"ARG_OF_PERICENTER":80.8701,"MEAN_ANOMALY":279.2621,"EPHEMERIS_TYPE":0,"CLASSIFICATION_TYPE":"U","NORAD_CAT_ID":57490,"ELEMENT_SET_NO":999,"REV_AT_EPOCH":13439,"BSTAR":5.9271e-5,"MEAN_MOTION_DOT":8.2e-7,"MEAN_MOTION_DDOT":0},{"OBJECT_NAME":"ARKTIKA-M 2","OBJECT_ID":"2023-198A","EPOCH":"2026-03-05T01:50:11.956992","MEAN_MOTION":2.00612038,"ECCENTRICITY":0.68777232,"INCLINATION":63.2186,"RA_OF_ASC_NODE":165.9003,"ARG_OF_PERICENTER":267.7621,"MEAN_ANOMALY":18.8474,"EPHEMERIS_TYPE":0,"CLASSIFICATION_TYPE":"U","NORAD_CAT_ID":58584,"ELEMENT_SET_NO":999,"REV_AT_EPOCH":1623,"BSTAR":0,"MEAN_MOTION_DOT":1.5e-6,"MEAN_MOTION_DDOT":0},{"OBJECT_NAME":"TIANMU-1 11","OBJECT_ID":"2023-205A","EPOCH":"2026-03-07T04:23:26.615616","MEAN_MOTION":15.25838606,"ECCENTRICITY":0.0009294,"INCLINATION":97.3546,"RA_OF_ASC_NODE":89.3741,"ARG_OF_PERICENTER":16.9214,"MEAN_ANOMALY":343.2332,"EPHEMERIS_TYPE":0,"CLASSIFICATION_TYPE":"U","NORAD_CAT_ID":58645,"ELEMENT_SET_NO":999,"REV_AT_EPOCH":12196,"BSTAR":0.00032301,"MEAN_MOTION_DOT":8.205e-5,"MEAN_MOTION_DDOT":0},{"OBJECT_NAME":"TIANMU-1 12","OBJECT_ID":"2023-205B","EPOCH":"2026-03-07T03:35:31.089696","MEAN_MOTION":15.25762625,"ECCENTRICITY":0.0007083,"INCLINATION":97.3535,"RA_OF_ASC_NODE":89.1209,"ARG_OF_PERICENTER":3.4573,"MEAN_ANOMALY":356.6713,"EPHEMERIS_TYPE":0,"CLASSIFICATION_TYPE":"U","NORAD_CAT_ID":58646,"ELEMENT_SET_NO":999,"REV_AT_EPOCH":12194,"BSTAR":0.00035016,"MEAN_MOTION_DOT":8.876e-5,"MEAN_MOTION_DDOT":0},{"OBJECT_NAME":"TIANMU-1 13","OBJECT_ID":"2023-205C","EPOCH":"2026-03-07T04:20:07.733184","MEAN_MOTION":15.25810899,"ECCENTRICITY":0.0006735,"INCLINATION":97.3563,"RA_OF_ASC_NODE":89.3892,"ARG_OF_PERICENTER":343.2785,"MEAN_ANOMALY":16.823,"EPHEMERIS_TYPE":0,"CLASSIFICATION_TYPE":"U","NORAD_CAT_ID":58647,"ELEMENT_SET_NO":999,"REV_AT_EPOCH":12194,"BSTAR":0.00029118,"MEAN_MOTION_DOT":7.378e-5,"MEAN_MOTION_DDOT":0},{"OBJECT_NAME":"TIANMU-1 14","OBJECT_ID":"2023-205D","EPOCH":"2026-03-07T03:57:51.217632","MEAN_MOTION":15.25787678,"ECCENTRICITY":0.0007632,"INCLINATION":97.3497,"RA_OF_ASC_NODE":88.645,"ARG_OF_PERICENTER":346.7956,"MEAN_ANOMALY":13.3081,"EPHEMERIS_TYPE":0,"CLASSIFICATION_TYPE":"U","NORAD_CAT_ID":58648,"ELEMENT_SET_NO":999,"REV_AT_EPOCH":12194,"BSTAR":0.00028602,"MEAN_MOTION_DOT":7.242e-5,"MEAN_MOTION_DDOT":0},{"OBJECT_NAME":"TIANMU-1 19","OBJECT_ID":"2023-208A","EPOCH":"2026-03-07T04:17:37.597632","MEAN_MOTION":15.29767193,"ECCENTRICITY":0.0004076,"INCLINATION":97.4388,"RA_OF_ASC_NODE":182.1633,"ARG_OF_PERICENTER":328.3734,"MEAN_ANOMALY":31.7261,"EPHEMERIS_TYPE":0,"CLASSIFICATION_TYPE":"U","NORAD_CAT_ID":58660,"ELEMENT_SET_NO":999,"REV_AT_EPOCH":12172,"BSTAR":0.00043482,"MEAN_MOTION_DOT":0.00012471,"MEAN_MOTION_DDOT":0},{"OBJECT_NAME":"TIANMU-1 20","OBJECT_ID":"2023-208B","EPOCH":"2026-03-07T05:31:57.935424","MEAN_MOTION":15.30959225,"ECCENTRICITY":0.0006391,"INCLINATION":97.4327,"RA_OF_ASC_NODE":182.7463,"ARG_OF_PERICENTER":335.179,"MEAN_ANOMALY":24.9143,"EPHEMERIS_TYPE":0,"CLASSIFICATION_TYPE":"U","NORAD_CAT_ID":58661,"ELEMENT_SET_NO":999,"REV_AT_EPOCH":12181,"BSTAR":0.00046156,"MEAN_MOTION_DOT":0.00013747,"MEAN_MOTION_DDOT":0},{"OBJECT_NAME":"TIANMU-1 21","OBJECT_ID":"2023-208C","EPOCH":"2026-03-07T05:34:27.976800","MEAN_MOTION":15.32957983,"ECCENTRICITY":0.0006169,"INCLINATION":97.4382,"RA_OF_ASC_NODE":185.0132,"ARG_OF_PERICENTER":328.2239,"MEAN_ANOMALY":31.863,"EPHEMERIS_TYPE":0,"CLASSIFICATION_TYPE":"U","NORAD_CAT_ID":58662,"ELEMENT_SET_NO":999,"REV_AT_EPOCH":12193,"BSTAR":0.00045182,"MEAN_MOTION_DOT":0.00014323,"MEAN_MOTION_DDOT":0},{"OBJECT_NAME":"TIANMU-1 22","OBJECT_ID":"2023-208D","EPOCH":"2026-03-07T04:42:07.539840","MEAN_MOTION":15.29388632,"ECCENTRICITY":0.0003333,"INCLINATION":97.4382,"RA_OF_ASC_NODE":182.193,"ARG_OF_PERICENTER":2.8449,"MEAN_ANOMALY":357.2809,"EPHEMERIS_TYPE":0,"CLASSIFICATION_TYPE":"U","NORAD_CAT_ID":58663,"ELEMENT_SET_NO":999,"REV_AT_EPOCH":12173,"BSTAR":0.00041559,"MEAN_MOTION_DOT":0.00011776,"MEAN_MOTION_DDOT":0},{"OBJECT_NAME":"TIANMU-1 15","OBJECT_ID":"2024-004A","EPOCH":"2026-03-07T03:54:37.330848","MEAN_MOTION":15.25788399,"ECCENTRICITY":0.0006892,"INCLINATION":97.4668,"RA_OF_ASC_NODE":252.4043,"ARG_OF_PERICENTER":359.2263,"MEAN_ANOMALY":0.8963,"EPHEMERIS_TYPE":0,"CLASSIFICATION_TYPE":"U","NORAD_CAT_ID":58700,"ELEMENT_SET_NO":999,"REV_AT_EPOCH":12021,"BSTAR":0.00033238,"MEAN_MOTION_DOT":8.426e-5,"MEAN_MOTION_DDOT":0},{"OBJECT_NAME":"TIANMU-1 16","OBJECT_ID":"2024-004B","EPOCH":"2026-03-07T05:05:21.564096","MEAN_MOTION":15.25821963,"ECCENTRICITY":0.0005417,"INCLINATION":97.4609,"RA_OF_ASC_NODE":251.7783,"ARG_OF_PERICENTER":5.0891,"MEAN_ANOMALY":355.0402,"EPHEMERIS_TYPE":0,"CLASSIFICATION_TYPE":"U","NORAD_CAT_ID":58701,"ELEMENT_SET_NO":999,"REV_AT_EPOCH":12022,"BSTAR":0.00032558,"MEAN_MOTION_DOT":8.258e-5,"MEAN_MOTION_DDOT":0},{"OBJECT_NAME":"TIANMU-1 17","OBJECT_ID":"2024-004C","EPOCH":"2026-03-07T04:40:00.101568","MEAN_MOTION":15.25858095,"ECCENTRICITY":0.0004659,"INCLINATION":97.4641,"RA_OF_ASC_NODE":252.2132,"ARG_OF_PERICENTER":8.7349,"MEAN_ANOMALY":351.397,"EPHEMERIS_TYPE":0,"CLASSIFICATION_TYPE":"U","NORAD_CAT_ID":58702,"ELEMENT_SET_NO":999,"REV_AT_EPOCH":12021,"BSTAR":0.00033739,"MEAN_MOTION_DOT":8.569e-5,"MEAN_MOTION_DDOT":0},{"OBJECT_NAME":"TIANMU-1 18","OBJECT_ID":"2024-004D","EPOCH":"2026-03-07T04:18:31.189824","MEAN_MOTION":15.2580718,"ECCENTRICITY":0.0004062,"INCLINATION":97.4659,"RA_OF_ASC_NODE":252.4095,"ARG_OF_PERICENTER":10.2335,"MEAN_ANOMALY":349.8985,"EPHEMERIS_TYPE":0,"CLASSIFICATION_TYPE":"U","NORAD_CAT_ID":58703,"ELEMENT_SET_NO":999,"REV_AT_EPOCH":12021,"BSTAR":0.00032516,"MEAN_MOTION_DOT":8.242e-5,"MEAN_MOTION_DDOT":0},{"OBJECT_NAME":"INSAT-3DS","OBJECT_ID":"2024-033A","EPOCH":"2026-03-07T02:19:42.132288","MEAN_MOTION":1.00273118,"ECCENTRICITY":0.0002168,"INCLINATION":0.0486,"RA_OF_ASC_NODE":260.2461,"ARG_OF_PERICENTER":101.405,"MEAN_ANOMALY":280.1326,"EPHEMERIS_TYPE":0,"CLASSIFICATION_TYPE":"U","NORAD_CAT_ID":58990,"ELEMENT_SET_NO":999,"REV_AT_EPOCH":4604,"BSTAR":0,"MEAN_MOTION_DOT":-1.58e-6,"MEAN_MOTION_DDOT":0},{"OBJECT_NAME":"METEOR-M2 4","OBJECT_ID":"2024-039A","EPOCH":"2026-03-07T04:29:29.130144","MEAN_MOTION":14.2241665,"ECCENTRICITY":0.0008135,"INCLINATION":98.6904,"RA_OF_ASC_NODE":26.8302,"ARG_OF_PERICENTER":102.5879,"MEAN_ANOMALY":257.6209,"EPHEMERIS_TYPE":0,"CLASSIFICATION_TYPE":"U","NORAD_CAT_ID":59051,"ELEMENT_SET_NO":999,"REV_AT_EPOCH":10476,"BSTAR":5.0817e-5,"MEAN_MOTION_DOT":7.0e-7,"MEAN_MOTION_DDOT":0}]
